GAOFEN-12 02            
1 48079U 21026A   26066.62749905  .00000771  00000+0  10843-3 0  9994
2 48079  97.9916  65.2386 0004403 186.8337 173.2815 14.80200895266736
PLEIADES NEO 3          
1 48268U 21034A   26066.61678623  .00000001  00000+0  67056-5 0  9996
2 48268  97.8933 142.8412 0001273  89.5058 270.6301 14.81672694262613
PLEIADES NEO 4          
1 49070U 21073E   26066.65053891 -.00000636  00000+0 -74183-4 0  9993
2 49070  97.8936 142.8711 0001363  91.8030 268.3339 14.81674811246335
LANDSAT 9               
1 49260U 21088A   26066.63479880  .00000580  00000+0  13863-3 0  9991
2 49260  98.1943 138.4542 0001151  91.7534 268.3796 14.57123229236212
CSG-2                   
1 51444U 22008A   26066.61676178  .00001029  00000+0  13575-3 0  9997
2 51444  97.8858 251.6820 0001403  79.7474 280.3897 14.82158434221546
GAOFEN-12 03            
1 52912U 22069A   26066.63626759  .00000758  00000+0  10738-3 0  9993
2 52912  97.8411 317.0059 0002214  94.5985 265.5480 14.79844299199595
SWOT                    
1 54754U 22173A   26066.59469251  .00000124  00000+0  85829-4 0  9993
2 54754  77.6120 172.4484 0000529 264.1527  95.9565 14.00169214164933
GAOFEN-12 04            
1 57654U 23123A   26066.66506954  .00001850  00000+0  25139-3 0  9995
2 57654  97.9131 346.1570 0001673  76.2295 283.9104 14.79997052137611
PARS 1                  
1 59065U 24039Q   26066.60552773  .00018364  00000+0  41222-3 0  9993
2 59065  97.4756  44.5487 0011922 116.8413 243.4055 15.43360415112960
RESURS-P 4              
1 59371U 24061A   26066.59157603  .00005769  00000+0  18396-3 0  9990
2 59371  97.2656  16.2873 0002561  61.9370 298.2132 15.32904648108209
LEGION 1                
1 59625U 24081A   26066.55920038  .00007532  00000+0  37904-3 0  9996
2 59625  97.5073 145.4755 0005228  27.5766 332.5744 15.17489105102137
LEGION 2                
1 59626U 24081B   26066.59676591  .00006188  00000+0  32030-3 0  9994
2 59626  97.5074 145.5927 0010384 352.8343   7.2740 15.16539139102140
ALOS-4 (DAICHI-4)       
1 60182U 24123A   26066.57397865  .00000887  00000+0  12559-3 0  9996
2 60182  97.9195 165.2044 0001526 101.4828 258.6555 14.79475134 90852
LEGION 3                
1 60452U 24146A   26066.56897821  .00006887  00000+0  36383-3 0  9994
2 60452  45.0006 215.2876 0013702 308.6156  51.3495 15.16122450 86601
LEGION 4                
1 60453U 24146B   26066.56720062  .00006683  00000+0  35329-3 0  9990
2 60453  45.0025 307.1480 0009417  91.0250 269.1708 15.16177542 85451
SENTINEL-2C             
1 60989U 24157A   26066.63409690  .00000187  00000+0  88114-4 0  9999
2 60989  98.5687 142.8742 0000709  92.5490 267.5774 14.30813387 78461
IONOSFERA-M 1           
1 61735U 24199A   26066.64247835  .00000072  00000+0  51934-4 0  9990
2 61735  98.7329 300.8048 0002104  79.0194 281.1221 14.22734853113261
