[{"OBJECT_NAME":"GAOFEN-12 02","OBJECT_ID":"2021-026A","EPOCH":"2026-03-07T15:03:35.917920","MEAN_MOTION":14.80200895,"ECCENTRICITY":0.00044039,"INCLINATION":97.9916,"RA_OF_ASC_NODE":65.2386,"ARG_OF_PERICENTER":186.8337,"MEAN_ANOMALY":173.2815,"EPHEMERIS_TYPE":0,"CLASSIFICATION_TYPE":"U","NORAD_CAT_ID":48079,"ELEMENT_SET_NO":999,"REV_AT_EPOCH":26673,"BSTAR":0.00010843427,"MEAN_MOTION_DOT":7.71e-6,"MEAN_MOTION_DDOT":0},{"OBJECT_NAME":"PLEIADES NEO 3","OBJECT_ID":"2021-034A","EPOCH":"2026-03-07T14:48:10.330272","MEAN_MOTION":14.81672694,"ECCENTRICITY":0.00012738,"INCLINATION":97.8933,"RA_OF_ASC_NODE":142.8412,"ARG_OF_PERICENTER":89.5058,"MEAN_ANOMALY":270.6301,"EPHEMERIS_TYPE":0,"CLASSIFICATION_TYPE":"U","NORAD_CAT_ID":48268,"ELEMENT_SET_NO":999,"REV_AT_EPOCH":26261,"BSTAR":6.705578e-6,"MEAN_MOTION_DOT":1.0e-8,"MEAN_MOTION_DDOT":0},{"OBJECT_NAME":"PLEIADES NEO 4","OBJECT_ID":"2021-073E","EPOCH":"2026-03-07T15:36:46.561824","MEAN_MOTION":14.81674811,"ECCENTRICITY":0.00013636,"INCLINATION":97.8936,"RA_OF_ASC_NODE":142.8711,"ARG_OF_PERICENTER":91.803,"MEAN_ANOMALY":268.3339,"EPHEMERIS_TYPE":0,"CLASSIFICATION_TYPE":"U","NORAD_CAT_ID":49070,"ELEMENT_SET_NO":999,"REV_AT_EPOCH":24633,"BSTAR":-7.4182574e-5,"MEAN_MOTION_DOT":-6.36e-6,"MEAN_MOTION_DDOT":0},{"OBJECT_NAME":"LANDSAT 9","OBJECT_ID":"2021-088A","EPOCH":"2026-03-07T15:14:06.616320","MEAN_MOTION":14.57123229,"ECCENTRICITY":0.0001151,"INCLINATION":98.1943,"RA_OF_ASC_NODE":138.4542,"ARG_OF_PERICENTER":91.7534,"MEAN_ANOMALY":268.3796,"EPHEMERIS_TYPE":0,"CLASSIFICATION_TYPE":"U","NORAD_CAT_ID":49260,"ELEMENT_SET_NO":999,"REV_AT_EPOCH":23621,"BSTAR":0.00013863225,"MEAN_MOTION_DOT":5.8e-6,"MEAN_MOTION_DDOT":0},{"OBJECT_NAME":"CSG-2","OBJECT_ID":"2022-008A","EPOCH":"2026-03-07T14:48:08.217792","MEAN_MOTION":14.82158434,"ECCENTRICITY":0.00014032,"INCLINATION":97.8858,"RA_OF_ASC_NODE":251.682,"ARG_OF_PERICENTER":79.7474,"MEAN_ANOMALY":280.3897,"EPHEMERIS_TYPE":0,"CLASSIFICATION_TYPE":"U","NORAD_CAT_ID":51444,"ELEMENT_SET_NO":999,"REV_AT_EPOCH":22154,"BSTAR":0.00013574544,"MEAN_MOTION_DOT":1.029e-5,"MEAN_MOTION_DDOT":0},{"OBJECT_NAME":"GAOFEN-12 03","OBJECT_ID":"2022-069A","EPOCH":"2026-03-07T15:16:13.519776","MEAN_MOTION":14.79844299,"ECCENTRICITY":0.00022146,"INCLINATION":97.8411,"RA_OF_ASC_NODE":317.0059,"ARG_OF_PERICENTER":94.5985,"MEAN_ANOMALY":265.548,"EPHEMERIS_TYPE":0,"CLASSIFICATION_TYPE":"U","NORAD_CAT_ID":52912,"ELEMENT_SET_NO":999,"REV_AT_EPOCH":19959,"BSTAR":0.00010738399,"MEAN_MOTION_DOT":7.58e-6,"MEAN_MOTION_DDOT":0},{"OBJECT_NAME":"SWOT","OBJECT_ID":"2022-173A","EPOCH":"2026-03-07T14:16:21.432864","MEAN_MOTION":14.00169214,"ECCENTRICITY":5.298e-5,"INCLINATION":77.612,"RA_OF_ASC_NODE":172.4484,"ARG_OF_PERICENTER":264.1527,"MEAN_ANOMALY":95.9565,"EPHEMERIS_TYPE":0,"CLASSIFICATION_TYPE":"U","NORAD_CAT_ID":54754,"ELEMENT_SET_NO":999,"REV_AT_EPOCH":16493,"BSTAR":8.5828733e-5,"MEAN_MOTION_DOT":1.24e-6,"MEAN_MOTION_DDOT":0},{"OBJECT_NAME":"GAOFEN-12 04","OBJECT_ID":"2023-123A","EPOCH":"2026-03-07T15:57:42.008256","MEAN_MOTION":14.79997052,"ECCENTRICITY":0.00016735,"INCLINATION":97.9131,"RA_OF_ASC_NODE":346.157,"ARG_OF_PERICENTER":76.2295,"MEAN_ANOMALY":283.9104,"EPHEMERIS_TYPE":0,"CLASSIFICATION_TYPE":"U","NORAD_CAT_ID":57654,"ELEMENT_SET_NO":999,"REV_AT_EPOCH":13761,"BSTAR":0.00025139238,"MEAN_MOTION_DOT":1.85e-5,"MEAN_MOTION_DDOT":0},{"OBJECT_NAME":"PARS 1","OBJECT_ID":"2024-039Q","EPOCH":"2026-03-07T14:31:57.595872","MEAN_MOTION":15.43360415,"ECCENTRICITY":0.00119224,"INCLINATION":97.4756,"RA_OF_ASC_NODE":44.5487,"ARG_OF_PERICENTER":116.8413,"MEAN_ANOMALY":243.4055,"EPHEMERIS_TYPE":0,"CLASSIFICATION_TYPE":"U","NORAD_CAT_ID":59065,"ELEMENT_SET_NO":999,"REV_AT_EPOCH":11296,"BSTAR":0.00041221915,"MEAN_MOTION_DOT":0.00018364,"MEAN_MOTION_DDOT":0},{"OBJECT_NAME":"RESURS-P 4","OBJECT_ID":"2024-061A","EPOCH":"2026-03-07T14:11:52.168992","MEAN_MOTION":15.32904648,"ECCENTRICITY":0.00025615,"INCLINATION":97.2656,"RA_OF_ASC_NODE":16.2873,"ARG_OF_PERICENTER":61.937,"MEAN_ANOMALY":298.2132,"EPHEMERIS_TYPE":0,"CLASSIFICATION_TYPE":"U","NORAD_CAT_ID":59371,"ELEMENT_SET_NO":999,"REV_AT_EPOCH":10820,"BSTAR":0.00018395601,"MEAN_MOTION_DOT":5.769e-5,"MEAN_MOTION_DDOT":0},{"OBJECT_NAME":"LEGION 1","OBJECT_ID":"2024-081A","EPOCH":"2026-03-07T13:25:14.912832","MEAN_MOTION":15.17489105,"ECCENTRICITY":0.00052284,"INCLINATION":97.5073,"RA_OF_ASC_NODE":145.4755,"ARG_OF_PERICENTER":27.5766,"MEAN_ANOMALY":332.5744,"EPHEMERIS_TYPE":0,"CLASSIFICATION_TYPE":"U","NORAD_CAT_ID":59625,"ELEMENT_SET_NO":999,"REV_AT_EPOCH":10213,"BSTAR":0.0003790444,"MEAN_MOTION_DOT":7.532e-5,"MEAN_MOTION_DDOT":0},{"OBJECT_NAME":"LEGION 2","OBJECT_ID":"2024-081B","EPOCH":"2026-03-07T14:19:20.574624","MEAN_MOTION":15.16539139,"ECCENTRICITY":0.00103844,"INCLINATION":97.5074,"RA_OF_ASC_NODE":145.5927,"ARG_OF_PERICENTER":352.8343,"MEAN_ANOMALY":7.274,"EPHEMERIS_TYPE":0,"CLASSIFICATION_TYPE":"U","NORAD_CAT_ID":59626,"ELEMENT_SET_NO":999,"REV_AT_EPOCH":10214,"BSTAR":0.00032029859,"MEAN_MOTION_DOT":6.188e-5,"MEAN_MOTION_DDOT":0},{"OBJECT_NAME":"ALOS-4 (DAICHI-4)","OBJECT_ID":"2024-123A","EPOCH":"2026-03-07T13:46:31.755360","MEAN_MOTION":14.79475134,"ECCENTRICITY":0.00015265,"INCLINATION":97.9195,"RA_OF_ASC_NODE":165.2044,"ARG_OF_PERICENTER":101.4828,"MEAN_ANOMALY":258.6555,"EPHEMERIS_TYPE":0,"CLASSIFICATION_TYPE":"U","NORAD_CAT_ID":60182,"ELEMENT_SET_NO":999,"REV_AT_EPOCH":9085,"BSTAR":0.000125587,"MEAN_MOTION_DOT":8.87e-6,"MEAN_MOTION_DDOT":0},{"OBJECT_NAME":"LEGION 3","OBJECT_ID":"2024-146A","EPOCH":"2026-03-07T13:39:19.717344","MEAN_MOTION":15.1612245,"ECCENTRICITY":0.00137024,"INCLINATION":45.0006,"RA_OF_ASC_NODE":215.2876,"ARG_OF_PERICENTER":308.6156,"MEAN_ANOMALY":51.3495,"EPHEMERIS_TYPE":0,"CLASSIFICATION_TYPE":"U","NORAD_CAT_ID":60452,"ELEMENT_SET_NO":999,"REV_AT_EPOCH":8660,"BSTAR":0.00036383248,"MEAN_MOTION_DOT":6.887e-5,"MEAN_MOTION_DDOT":0},{"OBJECT_NAME":"LEGION 4","OBJECT_ID":"2024-146B","EPOCH":"2026-03-07T13:36:46.133568","MEAN_MOTION":15.16177542,"ECCENTRICITY":0.00094178,"INCLINATION":45.0025,"RA_OF_ASC_NODE":307.148,"ARG_OF_PERICENTER":91.025,"MEAN_ANOMALY":269.1708,"EPHEMERIS_TYPE":0,"CLASSIFICATION_TYPE":"U","NORAD_CAT_ID":60453,"ELEMENT_SET_NO":999,"REV_AT_EPOCH":8545,"BSTAR":0.00035328583,"MEAN_MOTION_DOT":6.683e-5,"MEAN_MOTION_DDOT":0},{"OBJECT_NAME":"SENTINEL-2C","OBJECT_ID":"2024-157A","EPOCH":"2026-03-07T15:13:05.972160","MEAN_MOTION":14.30813387,"ECCENTRICITY":7.094e-5,"INCLINATION":98.5687,"RA_OF_ASC_NODE":142.8742,"ARG_OF_PERICENTER":92.549,"MEAN_ANOMALY":267.5774,"EPHEMERIS_TYPE":0,"CLASSIFICATION_TYPE":"U","NORAD_CAT_ID":60989,"ELEMENT_SET_NO":999,"REV_AT_EPOCH":7846,"BSTAR":8.8114071e-5,"MEAN_MOTION_DOT":1.87e-6,"MEAN_MOTION_DDOT":0},{"OBJECT_NAME":"IONOSFERA-M 1","OBJECT_ID":"2024-199A","EPOCH":"2026-03-07T15:25:10.129440","MEAN_MOTION":14.22734853,"ECCENTRICITY":0.0002104,"INCLINATION":98.7329,"RA_OF_ASC_NODE":300.8048,"ARG_OF_PERICENTER":79.0194,"MEAN_ANOMALY":281.1221,"EPHEMERIS_TYPE":0,"CLASSIFICATION_TYPE":"U","NORAD_CAT_ID":61735,"ELEMENT_SET_NO":999,"REV_AT_EPOCH":11326,"BSTAR":5.1934376e-5,"MEAN_MOTION_DOT":7.2e-7,"MEAN_MOTION_DDOT":0}]
